TDRS 3                  
1 19548U 88091B   24181.81199656 -.00000304  00000+0  00000+0 0  9990
2 19548  13.1522 345.8350 0033309 341.7347 194.1502  1.00266174118197
HST                     
1 20580U 90037B   24181.54733439  .00008591  00000+0  40258-3 0  9992
2 20580  28.4679 262.3105 0002827 160.5192 199.5508 15.17913768678911
TDRS 5                  
1 21639U 91054B   24181.38000854 -.00000306  00000+0  00000+0 0  9992
2 21639  14.1607 359.0196 0003543 214.1595 139.2612  1.00264236120514
TDRS 6                  
1 22314U 93003B   24181.88387705 -.00000302  00000+0  00000+0 0  9993
2 22314  14.1630   2.3198 0011420 154.5898  33.9265  1.00272009115219
TDRS 7                  
1 23613U 95035B   24181.98163391 -.00000208  00000+0  00000+0 0  9992
2 23613  13.6759 353.1411 0028225  71.4655 292.2464  1.00271742105967
ISS (ZARYA)             
1 25544U 98067A   24182.23525622  .00026310  00000+0  46754-3 0  9994
2 25544  51.6392 250.6622 0011086  22.0936  34.8107 15.49934787460571
LANDSAT 7               
1 25682U 99020A   24182.17300047  .00000941  00000+0  20191-3 0  9991
2 25682  97.8867 208.3484 0001264  83.7867   7.6174 14.60722416341096
TERRA                   
1 25994U 99068A   24182.17932622  .00001044  00000+0  22767-3 0  9995
2 25994  98.0475 245.2854 0001497   9.5790  49.2085 14.59836403305060
TDRS 8                  
1 26388U 00034A   24181.78841344  .00000091  00000+0  00000+0 0  9997
2 26388  11.5540  37.1838 0000761 216.2815 141.0969  1.00277563 87987
TIMED                   
1 26998U 01055B   24181.85839821  .00002361  00000+0  23958-3 0  9996
2 26998  74.0704 235.8419 0002560 280.4864  79.6030 14.91491735223719
AQUA                    
1 27424U 02022A   24182.20414451  .00002021  00000+0  43653-3 0  9991
2 27424  98.3302 131.6231 0002280  78.3453  33.6375 14.59425229178618
TDRS 10                 
1 27566U 02055A   24181.85924966  .00000083  00000+0  00000+0 0  9992
2 27566   9.5866  45.3197 0005881 349.8251  21.4373  1.00269187 79049
SORCE                   
1 27651U 03004A   24181.85097186  .00005560  00000+0  50614-3 0  9992
2 27651  39.9938  12.0433 0021963 324.3816  35.5508 14.95304541164143
AURA                    
1 28376U 04026A   24181.92375307  .00002187  00000+0  47922-3 0  9994
2 28376  98.2506 126.6719 0002331  63.8358 296.3081 14.58659377 61531
SWIFT                   
1 28485U 04047A   24181.84713496  .00016515  00000+0  72968-3 0  9992
2 28485  20.5555  90.5450 0008214  80.8619 279.2747 15.19471459 76255
THEMIS A                
1 30580U 07004A   24180.85320104 -.00000160  00000+0  00000+0 0  9991
2 30580   9.9265 264.1561 8348548 322.5357   2.4477  0.87834321 59656
THEMIS D                
1 30797U 07004D   24172.01507714 -.00000150  00000+0  00000+0 0  9993
2 30797   5.8475 261.7066 8339170 327.9579  75.9601  0.87835457 34684
THEMIS E                
1 30798U 07004E   24180.92100869 -.00000234  00000+0  00000+0 0  9996
2 30798   7.4586 280.5358 8333460 311.3725  27.0637  0.87833089 59598
FGRST (GLAST)           
1 33053U 08029A   24182.13050477  .00004650  00000+0  21368-3 0  9994
2 33053  25.5817 120.4109 0010206 181.9862 178.0635 15.16922245886767
WISE                    
1 36119U 09071A   24181.84661608  .00070137  00000+0  67547-3 0  9991
2 36119  97.1429 218.6219 0003482 115.6244 244.5377 15.66311157810224
TDRS 11                 
1 39070U 13004A   24181.96739584  .00000082  00000+0  00000+0 0  9992
2 39070   2.7513  12.1453 0005864  56.5959  23.8622  1.00279101 39508
TDRS 12                 
1 39504U 14004A   24181.81356297 -.00000269  00000+0  00000+0 0  9993
2 39504   3.5539   3.7188 0003294 190.3114 336.0540  1.00279524 37081
GPM-CORE                
1 39574U 14009C   24181.88564054  .00012683  00000+0  27024-3 0  9995
2 39574  64.9840 190.5631 0009938 266.6286  93.3718 15.45184718587017
MMS 1                   
1 40482U 15011A   24182.25001157 -.00000964  00000+0  00000+0 0  9992
2 40482  48.9751  10.1324 9080381 147.5854  22.1757  0.28375528 15413
MMS 2                   
1 40483U 15011B   24182.25001157 -.00000964  00000+0  00000+0 0  9993
2 40483  48.9750  10.1325 9080384 147.5853  22.0157  0.28375362 15392
MMS 3                   
1 40484U 15011C   24182.25001157 -.00000964  00000+0  00000+0 0  9994
2 40484  48.9750  10.1326 9080384 147.5853  22.0942  0.28375420 15391
MMS 4                   
1 40485U 15011D   24182.25001157 -.00000964  00000+0  00000+0 0  9995
2 40485  48.9752  10.1323 9080409 147.5854  21.9362  0.28375307 15398
TDRS 13                 
1 42915U 17047A   24181.91507865 -.00000097  00000+0  00000+0 0  9992
2 42915   3.6295 344.9189 0017726 117.2681 134.2515  1.00271501 25156
NOAA 20 (JPSS-1)        
1 43013U 17073A   24182.16988743  .00000170  00000+0  10129-3 0  9995
2 43013  98.7065 119.8748 0001504 137.8488 222.2804 14.19537524342746
